{
  "type": "FeatureCollection",
  "features": [
    {
      "type": "Feature",
      "properties": {
        "norad_id": 66549,
        "name": "SHIJIAN-28 (SJ-28)",
        "group": "last-30-days",
        "lat": 4.936080543258761,
        "lon": -3.819342631405584,
        "alt_km": 35784.374429975345,
        "timestamp": "2025-12-23T09:49:05.794766+00:00",
        "meta_object_name": "SHIJIAN-28 (SJ-28)",
        "meta_object_id": "2025-277A",
        "meta_epoch": "2025-12-22T18:51:21.728160",
        "meta_mean_motion": 1.0026661,
        "meta_eccentricity": 0.00010301,
        "meta_inclination": 4.9941,
        "meta_ra_of_asc_node": 274.7989,
        "meta_arg_of_pericenter": 134.0697,
        "meta_mean_anomaly": 82.3344,
        "meta_ephemeris_type": 0,
        "meta_classification_type": "U",
        "meta_norad_cat_id": 66549,
        "meta_element_set_no": 999,
        "meta_rev_at_epoch": 38,
        "meta_bstar": 0,
        "meta_mean_motion_dot": -3.36e-06,
        "meta_mean_motion_ddot": 0,
        "tle_line1": "1 66549U 25277A   25356.78566815 -.00000336  00000+0  00000+0 0  9991",
        "tle_line2": "2 66549   4.9941 274.7989 0001030 134.0697  82.3344  1.00266610   386"
      },
      "geometry": {
        "type": "Point",
        "coordinates": [
          -3.819342631405584,
          4.936080543258761
        ]
      }
    },
    {
      "type": "Feature",
      "properties": {
        "norad_id": 66550,
        "name": "CZ-7A R/B",
        "group": "last-30-days",
        "lat": 6.531007744996975,
        "lon": -69.4350696388916,
        "alt_km": 25674.786091082868,
        "timestamp": "2025-12-23T09:49:05.794817+00:00",
        "meta_object_name": "CZ-7A R/B",
        "meta_object_id": "2025-277B",
        "meta_epoch": "2025-12-18T08:54:45.891072",
        "meta_mean_motion": 2.8884184,
        "meta_eccentricity": 0.6879086,
        "meta_inclination": 14.3533,
        "meta_ra_of_asc_node": 266.9093,
        "meta_arg_of_pericenter": 194.6822,
        "meta_mean_anomaly": 125.1782,
        "meta_ephemeris_type": 0,
        "meta_classification_type": "U",
        "meta_norad_cat_id": 66550,
        "meta_element_set_no": 999,
        "meta_rev_at_epoch": 50,
        "meta_bstar": 0.0030391,
        "meta_mean_motion_dot": 0.0266328,
        "meta_mean_motion_ddot": 1.4058e-06,
        "tle_line1": "1 66550U 25277B   25352.37136448  .02663280  14058-5  30391-2 0  9996",
        "tle_line2": "2 66550  14.3533 266.9093 6879086 194.6822 125.1782  2.88841840   508"
      },
      "geometry": {
        "type": "Point",
        "coordinates": [
          -69.4350696388916,
          6.531007744996975
        ]
      }
    },
    {
      "type": "Feature",
      "properties": {
        "norad_id": 66554,
        "name": "GLOBAL-33",
        "group": "last-30-days",
        "lat": -40.743959643272134,
        "lon": -77.68720964309871,
        "alt_km": 475.2105492319124,
        "timestamp": "2025-12-23T09:49:05.794845+00:00",
        "meta_object_name": "GLOBAL-33",
        "meta_object_id": "2025-267A",
        "meta_epoch": "2025-12-22T09:06:54.990432",
        "meta_mean_motion": 15.31669226,
        "meta_eccentricity": 0.0004199,
        "meta_inclination": 42.0212,
        "meta_ra_of_asc_node": 1.3398,
        "meta_arg_of_pericenter": 158.9843,
        "meta_mean_anomaly": 201.1167,
        "meta_ephemeris_type": 0,
        "meta_classification_type": "U",
        "meta_norad_cat_id": 66554,
        "meta_element_set_no": 999,
        "meta_rev_at_epoch": 488,
        "meta_bstar": 0.00046455303,
        "meta_mean_motion_dot": 0.00014292,
        "meta_mean_motion_ddot": 0,
        "tle_line1": "1 66554U 25267A   25356.37980313  .00014292  00000+0  46455-3 0  9997",
        "tle_line2": "2 66554  42.0212   1.3398 0004199 158.9843 201.1167 15.31669226  4883"
      },
      "geometry": {
        "type": "Point",
        "coordinates": [
          -77.68720964309871,
          -40.743959643272134
        ]
      }
    },
    {
      "type": "Feature",
      "properties": {
        "norad_id": 66557,
        "name": "STARLINK-35699",
        "group": "last-30-days",
        "lat": 7.676047738786829,
        "lon": 67.01204958766743,
        "alt_km": 420.3373145278647,
        "timestamp": "2025-12-23T09:49:05.794859+00:00",
        "meta_object_name": "STARLINK-35699",
        "meta_object_id": "2025-268A",
        "meta_epoch": "2025-12-23T00:00:00.999648",
        "meta_mean_motion": 15.50173277,
        "meta_eccentricity": 0.00010096,
        "meta_inclination": 43.0003,
        "meta_ra_of_asc_node": 61.0844,
        "meta_arg_of_pericenter": 265.9648,
        "meta_mean_anomaly": 341.0922,
        "meta_ephemeris_type": 0,
        "meta_classification_type": "U",
        "meta_norad_cat_id": 66557,
        "meta_element_set_no": 999,
        "meta_rev_at_epoch": 610,
        "meta_bstar": -0.040042316,
        "meta_mean_motion_dot": -0.02060462,
        "meta_mean_motion_ddot": 0,
        "tle_line1": "1 66557U 25268A   25357.00001157 -.02060462  00000+0 -40042-1 0  9990",
        "tle_line2": "2 66557  43.0003  61.0844 0001009 265.9648 341.0922 15.50173277  6100"
      },
      "geometry": {
        "type": "Point",
        "coordinates": [
          67.01204958766743,
          7.676047738786829
        ]
      }
    },
    {
      "type": "Feature",
      "properties": {
        "norad_id": 66558,
        "name": "STARLINK-35695",
        "group": "last-30-days",
        "lat": 12.398769475810056,
        "lon": 72.32500404212274,
        "alt_km": 417.32897311983834,
        "timestamp": "2025-12-23T09:49:05.794872+00:00",
        "meta_object_name": "STARLINK-35695",
        "meta_object_id": "2025-268B",
        "meta_epoch": "2025-12-23T00:00:00.999648",
        "meta_mean_motion": 15.51008751,
        "meta_eccentricity": 0.00010981,
        "meta_inclination": 43.0007,
        "meta_ra_of_asc_node": 61.071,
        "meta_arg_of_pericenter": 264.5548,
        "meta_mean_anomaly": 348.3176,
        "meta_ephemeris_type": 0,
        "meta_classification_type": "U",
        "meta_norad_cat_id": 66558,
        "meta_element_set_no": 999,
        "meta_rev_at_epoch": 610,
        "meta_bstar": -0.038708483,
        "meta_mean_motion_dot": -0.02053479,
        "meta_mean_motion_ddot": 0,
        "tle_line1": "1 66558U 25268B   25357.00001157 -.02053479  00000+0 -38708-1 0  9997",
        "tle_line2": "2 66558  43.0007  61.0710 0001098 264.5548 348.3176 15.51008751  6105"
      },
      "geometry": {
        "type": "Point",
        "coordinates": [
          72.32500404212274,
          12.398769475810056
        ]
      }
    },
    {
      "type": "Feature",
      "properties": {
        "norad_id": 66559,
        "name": "STARLINK-35419",
        "group": "last-30-days",
        "lat": 25.71298149737069,
        "lon": 89.74238218805652,
        "alt_km": 400.82287694523075,
        "timestamp": "2025-12-23T09:49:05.794890+00:00",
        "meta_object_name": "STARLINK-35419",
        "meta_object_id": "2025-268C",
        "meta_epoch": "2025-12-23T00:00:00.999648",
        "meta_mean_motion": 15.56162884,
        "meta_eccentricity": 0.00014508,
        "meta_inclination": 43.0006,
        "meta_ra_of_asc_node": 61.0376,
        "meta_arg_of_pericenter": 260.9917,
        "meta_mean_anomaly": 5.436,
        "meta_ephemeris_type": 0,
        "meta_classification_type": "U",
        "meta_norad_cat_id": 66559,
        "meta_element_set_no": 999,
        "meta_rev_at_epoch": 605,
        "meta_bstar": -0.032510893,
        "meta_mean_motion_dot": -0.02081458,
        "meta_mean_motion_ddot": 0,
        "tle_line1": "1 66559U 25268C   25357.00001157 -.02081458  00000+0 -32511-1 0  9992",
        "tle_line2": "2 66559  43.0006  61.0376 0001450 260.9917   5.4360 15.56162884  6058"
      },
      "geometry": {
        "type": "Point",
        "coordinates": [
          89.74238218805652,
          25.71298149737069
        ]
      }
    },
    {
      "type": "Feature",
      "properties": {
        "norad_id": 66560,
        "name": "STARLINK-35411",
        "group": "last-30-days",
        "lat": 27.266421302135992,
        "lon": 92.19941386484484,
        "alt_km": 399.02260440341524,
        "timestamp": "2025-12-23T09:49:05.794902+00:00",
        "meta_object_name": "STARLINK-35411",
        "meta_object_id": "2025-268D",
        "meta_epoch": "2025-12-23T00:00:00.999648",
        "meta_mean_motion": 15.56753256,
        "meta_eccentricity": 0.00015637,
        "meta_inclination": 43.0004,
        "meta_ra_of_asc_node": 61.0327,
        "meta_arg_of_pericenter": 262.7185,
        "meta_mean_anomaly": 5.556,
        "meta_ephemeris_type": 0,
        "meta_classification_type": "U",
        "meta_norad_cat_id": 66560,
        "meta_element_set_no": 999,
        "meta_rev_at_epoch": 610,
        "meta_bstar": -0.032393808,
        "meta_mean_motion_dot": -0.02116264,
        "meta_mean_motion_ddot": 0,
        "tle_line1": "1 66560U 25268D   25357.00001157 -.02116264  00000+0 -32394-1 0  9997",
        "tle_line2": "2 66560  43.0004  61.0327 0001563 262.7185   5.5560 15.56753256  6104"
      },
      "geometry": {
        "type": "Point",
        "coordinates": [
          92.19941386484484,
          27.266421302135992
        ]
      }
    }
  ]
}